{
  "type": "FeatureCollection",
  "features": [
    {
      "type": "Feature",
      "properties": {
        "norad_id": 37993,
        "name": "COSMOS 2251 DEB",
        "group": "cosmos-2251-debris",
        "lat": 57.13133054898218,
        "lon": 174.76998237957835,
        "alt_km": 702.6702251904171,
        "timestamp": "2025-12-22T09:53:37.797968+00:00",
        "meta_object_name": "COSMOS 2251 DEB",
        "meta_object_id": "1993-036BQU",
        "meta_epoch": "2025-12-17T04:37:52.855104",
        "meta_mean_motion": 14.59966404,
        "meta_eccentricity": 0.00218755,
        "meta_inclination": 74.021,
        "meta_ra_of_asc_node": 158.4097,
        "meta_arg_of_pericenter": 246.7183,
        "meta_mean_anomaly": 113.168,
        "meta_ephemeris_type": 0,
        "meta_classification_type": "U",
        "meta_norad_cat_id": 37993,
        "meta_element_set_no": 999,
        "meta_rev_at_epoch": 65382,
        "meta_bstar": 0.0010496489,
        "meta_mean_motion_dot": 5.024e-05,
        "meta_mean_motion_ddot": 0,
        "tle_line1": "1 37993U 93036BQU 25351.19297286  .00005024  00000+0  10496-2 0  9994",
        "tle_line2": "2 37993  74.0210 158.4097 0021875 246.7183 113.1680 14.59966404653827"
      },
      "geometry": {
        "type": "Point",
        "coordinates": [
          174.76998237957835,
          57.13133054898218
        ]
      }
    },
    {
      "type": "Feature",
      "properties": {
        "norad_id": 37994,
        "name": "COSMOS 2251 DEB",
        "group": "cosmos-2251-debris",
        "lat": 18.156270778276383,
        "lon": 72.44142054112575,
        "alt_km": 776.2200368714166,
        "timestamp": "2025-12-22T09:53:37.797978+00:00",
        "meta_object_name": "COSMOS 2251 DEB",
        "meta_object_id": "1993-036BQV",
        "meta_epoch": "2025-12-22T04:08:40.991424",
        "meta_mean_motion": 14.3964332,
        "meta_eccentricity": 0.0023299,
        "meta_inclination": 74.0361,
        "meta_ra_of_asc_node": 258.27,
        "meta_arg_of_pericenter": 336.0791,
        "meta_mean_anomaly": 23.9279,
        "meta_ephemeris_type": 0,
        "meta_classification_type": "U",
        "meta_norad_cat_id": 37994,
        "meta_element_set_no": 999,
        "meta_rev_at_epoch": 77200,
        "meta_bstar": 0.00029441,
        "meta_mean_motion_dot": 8.97e-06,
        "meta_mean_motion_ddot": 0,
        "tle_line1": "1 37994U 93036BQV 25356.17269666  .00000897  00000+0  29441-3 0  9993",
        "tle_line2": "2 37994  74.0361 258.2700 0023299 336.0791  23.9279 14.39643320772006"
      },
      "geometry": {
        "type": "Point",
        "coordinates": [
          72.44142054112575,
          18.156270778276383
        ]
      }
    },
    {
      "type": "Feature",
      "properties": {
        "norad_id": 37998,
        "name": "COSMOS 2251 DEB",
        "group": "cosmos-2251-debris",
        "lat": -73.79387114760075,
        "lon": 117.13329517935573,
        "alt_km": 733.8748078847557,
        "timestamp": "2025-12-22T09:53:37.797988+00:00",
        "meta_object_name": "COSMOS 2251 DEB",
        "meta_object_id": "1993-036BQZ",
        "meta_epoch": "2025-12-19T00:55:56.823168",
        "meta_mean_motion": 14.45502343,
        "meta_eccentricity": 0.00202427,
        "meta_inclination": 74.0345,
        "meta_ra_of_asc_node": 223.3597,
        "meta_arg_of_pericenter": 295.5973,
        "meta_mean_anomaly": 64.3093,
        "meta_ephemeris_type": 0,
        "meta_classification_type": "U",
        "meta_norad_cat_id": 37998,
        "meta_element_set_no": 999,
        "meta_rev_at_epoch": 64378,
        "meta_bstar": 0.00035299512,
        "meta_mean_motion_dot": 1.221e-05,
        "meta_mean_motion_ddot": 0,
        "tle_line1": "1 37998U 93036BQZ 25353.03885212  .00001221  00000+0  35300-3 0  9993",
        "tle_line2": "2 37998  74.0345 223.3597 0020242 295.5973  64.3093 14.45502343643786"
      },
      "geometry": {
        "type": "Point",
        "coordinates": [
          117.13329517935573,
          -73.79387114760075
        ]
      }
    },
    {
      "type": "Feature",
      "properties": {
        "norad_id": 38001,
        "name": "COSMOS 2251 DEB",
        "group": "cosmos-2251-debris",
        "lat": -42.49455955732827,
        "lon": 98.0233654115007,
        "alt_km": 611.3652655171427,
        "timestamp": "2025-12-22T09:53:37.797997+00:00",
        "meta_object_name": "COSMOS 2251 DEB",
        "meta_object_id": "1993-036BRC",
        "meta_epoch": "2025-12-21T14:42:05.527008",
        "meta_mean_motion": 14.79169342,
        "meta_eccentricity": 0.0065464,
        "meta_inclination": 74.003,
        "meta_ra_of_asc_node": 114.837,
        "meta_arg_of_pericenter": 262.704,
        "meta_mean_anomaly": 115.5941,
        "meta_ephemeris_type": 0,
        "meta_classification_type": "U",
        "meta_norad_cat_id": 38001,
        "meta_element_set_no": 999,
        "meta_rev_at_epoch": 74839,
        "meta_bstar": 0.00066333,
        "meta_mean_motion_dot": 5.068e-05,
        "meta_mean_motion_ddot": 0,
        "tle_line1": "1 38001U 93036BRC 25355.61256397  .00005068  00000+0  66333-3 0  9994",
        "tle_line2": "2 38001  74.0030 114.8370 0065464 262.7040 115.5941 14.79169342748391"
      },
      "geometry": {
        "type": "Point",
        "coordinates": [
          98.0233654115007,
          -42.49455955732827
        ]
      }
    },
    {
      "type": "Feature",
      "properties": {
        "norad_id": 38006,
        "name": "COSMOS 2251 DEB",
        "group": "cosmos-2251-debris",
        "lat": 73.81576928730291,
        "lon": 105.26949917566063,
        "alt_km": 761.6574072517769,
        "timestamp": "2025-12-22T09:53:37.798007+00:00",
        "meta_object_name": "COSMOS 2251 DEB",
        "meta_object_id": "1993-036BRH",
        "meta_epoch": "2025-12-10T03:36:37.956384",
        "meta_mean_motion": 14.45867865,
        "meta_eccentricity": 0.00758537,
        "meta_inclination": 73.8744,
        "meta_ra_of_asc_node": 42.933,
        "meta_arg_of_pericenter": 348.3853,
        "meta_mean_anomaly": 11.555,
        "meta_ephemeris_type": 0,
        "meta_classification_type": "U",
        "meta_norad_cat_id": 38006,
        "meta_element_set_no": 999,
        "meta_rev_at_epoch": 62922,
        "meta_bstar": 0.0047338847,
        "meta_mean_motion_dot": 0.00017443,
        "meta_mean_motion_ddot": 0,
        "tle_line1": "1 38006U 93036BRH 25344.15043931  .00017443  00000+0  47339-2 0  9998",
        "tle_line2": "2 38006  73.8744  42.9330 0075853 348.3853  11.5550 14.45867865629227"
      },
      "geometry": {
        "type": "Point",
        "coordinates": [
          105.26949917566063,
          73.81576928730291
        ]
      }
    },
    {
      "type": "Feature",
      "properties": {
        "norad_id": 38054,
        "name": "COSMOS 2251 DEB",
        "group": "cosmos-2251-debris",
        "lat": 11.947337089690782,
        "lon": 66.46906010907477,
        "alt_km": 883.4874585263951,
        "timestamp": "2025-12-22T09:53:37.798017+00:00",
        "meta_object_name": "COSMOS 2251 DEB",
        "meta_object_id": "1993-036BRL",
        "meta_epoch": "2025-12-21T17:20:05.403264",
        "meta_mean_motion": 13.62379948,
        "meta_eccentricity": 0.0357485,
        "meta_inclination": 73.9527,
        "meta_ra_of_asc_node": 251.089,
        "meta_arg_of_pericenter": 227.3962,
        "meta_mean_anomaly": 160.8212,
        "meta_ephemeris_type": 0,
        "meta_classification_type": "U",
        "meta_norad_cat_id": 38054,
        "meta_element_set_no": 999,
        "meta_rev_at_epoch": 67302,
        "meta_bstar": 0.0014428,
        "meta_mean_motion_dot": 1.694e-05,
        "meta_mean_motion_ddot": 0,
        "tle_line1": "1 38054U 93036BRL 25355.72228476  .00001694  00000+0  14428-2 0  9999",
        "tle_line2": "2 38054  73.9527 251.0890 0357485 227.3962 160.8212 13.62379948673023"
      },
      "geometry": {
        "type": "Point",
        "coordinates": [
          66.46906010907477,
          11.947337089690782
        ]
      }
    },
    {
      "type": "Feature",
      "properties": {
        "norad_id": 38055,
        "name": "COSMOS 2251 DEB",
        "group": "cosmos-2251-debris",
        "lat": 45.638938957379516,
        "lon": -9.290000988409531,
        "alt_km": 680.6520289214932,
        "timestamp": "2025-12-22T09:53:37.798027+00:00",
        "meta_object_name": "COSMOS 2251 DEB",
        "meta_object_id": "1993-036BRM",
        "meta_epoch": "2025-12-20T07:43:08.868288",
        "meta_mean_motion": 14.77047435,
        "meta_eccentricity": 0.00660367,
        "meta_inclination": 74.0077,
        "meta_ra_of_asc_node": 191.8677,
        "meta_arg_of_pericenter": 317.7505,
        "meta_mean_anomaly": 222.1264,
        "meta_ephemeris_type": 0,
        "meta_classification_type": "U",
        "meta_norad_cat_id": 38055,
        "meta_element_set_no": 999,
        "meta_rev_at_epoch": 60794,
        "meta_bstar": 0.00044182386,
        "meta_mean_motion_dot": 3.197e-05,
        "meta_mean_motion_ddot": 0,
        "tle_line1": "1 38055U 93036BRM 25354.32163042  .00003197  00000+0  44182-3 0  9993",
        "tle_line2": "2 38055  74.0077 191.8677 0066036 317.7505 222.1264 14.77047435607943"
      },
      "geometry": {
        "type": "Point",
        "coordinates": [
          -9.290000988409531,
          45.638938957379516
        ]
      }
    }
  ]
}